{
  "links" : {
    "next" : "https://api.nasa.gov/neo/rest/v1/feed?start_date=2003-06-09&end_date=2003-06-09&detailed=true&api_key=t0TVs3DtDT2H8Oy2Zy8m2eVrNsAVKAexjcZXUckd",
    "prev" : "https://api.nasa.gov/neo/rest/v1/feed?start_date=2003-06-07&end_date=2003-06-07&detailed=true&api_key=t0TVs3DtDT2H8Oy2Zy8m2eVrNsAVKAexjcZXUckd",
    "self" : "https://api.nasa.gov/neo/rest/v1/feed?start_date=2003-06-08&end_date=2003-06-08&detailed=true&api_key=t0TVs3DtDT2H8Oy2Zy8m2eVrNsAVKAexjcZXUckd"
  },
  "element_count" : 9,
  "near_earth_objects" : {
    "2003-06-08" : [ {
      "links" : {
        "self" : "https://api.nasa.gov/neo/rest/v1/neo/3036363?api_key=t0TVs3DtDT2H8Oy2Zy8m2eVrNsAVKAexjcZXUckd"
      },
      "neo_reference_id" : "3036363",
      "name" : "(2000 HB24)",
      "nasa_jpl_url" : "http://ssd.jpl.nasa.gov/sbdb.cgi?sstr=3036363",
      "absolute_magnitude_h" : 23.7,
      "estimated_diameter" : {
        "kilometers" : {
          "estimated_diameter_min" : 0.0483676488,
          "estimated_diameter_max" : 0.1081533507
        },
        "meters" : {
          "estimated_diameter_min" : 48.3676488219,
          "estimated_diameter_max" : 108.1533506775
        },
        "miles" : {
          "estimated_diameter_min" : 0.0300542543,
          "estimated_diameter_max" : 0.0672033557
        },
        "feet" : {
          "estimated_diameter_min" : 158.6865169607,
          "estimated_diameter_max" : 354.8338390368
        }
      },
      "is_potentially_hazardous_asteroid" : false,
      "close_approach_data" : [ {
        "close_approach_date" : "2003-06-08",
        "epoch_date_close_approach" : 1055055600000,
        "relative_velocity" : {
          "kilometers_per_second" : "8.5946613634",
          "kilometers_per_hour" : "30940.7809082614",
          "miles_per_hour" : "19225.3980038028"
        },
        "miss_distance" : {
          "astronomical" : "0.1516370849",
          "lunar" : "58.9868278503",
          "kilometers" : "22684586",
          "miles" : "14095548"
        },
        "orbiting_body" : "Earth"
      } ],
      "orbital_data" : {
        "orbit_id" : "18",
        "orbit_determination_date" : "2017-06-24 06:18:41",
        "orbit_uncertainty" : "0",
        "minimum_orbit_intersection" : ".0160056",
        "jupiter_tisserand_invariant" : "7.097",
        "epoch_osculation" : "2458000.5",
        "eccentricity" : ".4303784483447433",
        "semi_major_axis" : ".8151717350145623",
        "inclination" : "2.669858628180247",
        "ascending_node_longitude" : "55.10226069127798",
        "orbital_period" : "268.8265112225945",
        "perihelion_distance" : ".4643393885645027",
        "perihelion_argument" : "17.91144392759839",
        "aphelion_distance" : "1.166004081464622",
        "perihelion_time" : "2458038.451581217942",
        "mean_anomaly" : "309.1770020139639",
        "mean_motion" : "1.339153636160206",
        "equinox" : "J2000"
      }
    }, {
      "links" : {
        "self" : "https://api.nasa.gov/neo/rest/v1/neo/3182829?api_key=t0TVs3DtDT2H8Oy2Zy8m2eVrNsAVKAexjcZXUckd"
      },
      "neo_reference_id" : "3182829",
      "name" : "(2004 KH15)",
      "nasa_jpl_url" : "http://ssd.jpl.nasa.gov/sbdb.cgi?sstr=3182829",
      "absolute_magnitude_h" : 19.7,
      "estimated_diameter" : {
        "kilometers" : {
          "estimated_diameter_min" : 0.3051792326,
          "estimated_diameter_max" : 0.6824015094
        },
        "meters" : {
          "estimated_diameter_min" : 305.1792325939,
          "estimated_diameter_max" : 682.4015094011
        },
        "miles" : {
          "estimated_diameter_min" : 0.1896295249,
          "estimated_diameter_max" : 0.4240245083
        },
        "feet" : {
          "estimated_diameter_min" : 1001.2442334633,
          "estimated_diameter_max" : 2238.8501681036
        }
      },
      "is_potentially_hazardous_asteroid" : false,
      "close_approach_data" : [ {
        "close_approach_date" : "2003-06-08",
        "epoch_date_close_approach" : 1055055600000,
        "relative_velocity" : {
          "kilometers_per_second" : "17.3824895152",
          "kilometers_per_hour" : "62576.9622546588",
          "miles_per_hour" : "38882.8907965129"
        },
        "miss_distance" : {
          "astronomical" : "0.2142850261",
          "lunar" : "83.356880188",
          "kilometers" : "32056584",
          "miles" : "19919038"
        },
        "orbiting_body" : "Earth"
      } ],
      "orbital_data" : {
        "orbit_id" : "17",
        "orbit_determination_date" : "2017-07-01 06:47:31",
        "orbit_uncertainty" : "1",
        "minimum_orbit_intersection" : ".106311",
        "jupiter_tisserand_invariant" : "6.107",
        "epoch_osculation" : "2458000.5",
        "eccentricity" : ".1701686609803043",
        "semi_major_axis" : ".9610593223650911",
        "inclination" : "35.07094862186194",
        "ascending_node_longitude" : "78.10656163766139",
        "orbital_period" : "344.1309398018544",
        "perihelion_distance" : ".7975171443555849",
        "perihelion_argument" : "350.0974128318675",
        "aphelion_distance" : "1.124601500374597",
        "perihelion_time" : "2458134.566577402546",
        "mean_anomaly" : "219.7511520100278",
        "mean_motion" : "1.046113436377685",
        "equinox" : "J2000"
      }
    }, {
      "links" : {
        "self" : "https://api.nasa.gov/neo/rest/v1/neo/3276601?api_key=t0TVs3DtDT2H8Oy2Zy8m2eVrNsAVKAexjcZXUckd"
      },
      "neo_reference_id" : "3276601",
      "name" : "(2005 GB120)",
      "nasa_jpl_url" : "http://ssd.jpl.nasa.gov/sbdb.cgi?sstr=3276601",
      "absolute_magnitude_h" : 20.4,
      "estimated_diameter" : {
        "kilometers" : {
          "estimated_diameter_min" : 0.2210828104,
          "estimated_diameter_max" : 0.4943561926
        },
        "meters" : {
          "estimated_diameter_min" : 221.0828103591,
          "estimated_diameter_max" : 494.3561926196
        },
        "miles" : {
          "estimated_diameter_min" : 0.137374447,
          "estimated_diameter_max" : 0.3071786018
        },
        "feet" : {
          "estimated_diameter_min" : 725.3373275385,
          "estimated_diameter_max" : 1621.9035709942
        }
      },
      "is_potentially_hazardous_asteroid" : false,
      "close_approach_data" : [ {
        "close_approach_date" : "2003-06-08",
        "epoch_date_close_approach" : 1055055600000,
        "relative_velocity" : {
          "kilometers_per_second" : "14.072076023",
          "kilometers_per_hour" : "50659.4736826326",
          "miles_per_hour" : "31477.8268557447"
        },
        "miss_distance" : {
          "astronomical" : "0.2135265752",
          "lunar" : "83.0618362427",
          "kilometers" : "31943122",
          "miles" : "19848536"
        },
        "orbiting_body" : "Earth"
      } ],
      "orbital_data" : {
        "orbit_id" : "38",
        "orbit_determination_date" : "2017-05-06 06:47:19",
        "orbit_uncertainty" : "0",
        "minimum_orbit_intersection" : ".0735488",
        "jupiter_tisserand_invariant" : "7.284",
        "epoch_osculation" : "2457800.5",
        "eccentricity" : ".3947704038455475",
        "semi_major_axis" : ".7912044312904624",
        "inclination" : "9.152548924024464",
        "ascending_node_longitude" : "160.9785643250936",
        "orbital_period" : "257.0582184277254",
        "perihelion_distance" : ".4788603384255398",
        "perihelion_argument" : "243.708352923736",
        "aphelion_distance" : "1.103548524155385",
        "perihelion_time" : "2457756.873725846833",
        "mean_anomaly" : "61.09689389120246",
        "mean_motion" : "1.400460962508451",
        "equinox" : "J2000"
      }
    } ]
  }
}